[Satellite]
VERSION=1.1
NAME=TIMED
NICKNAME=TIMED
TLE1=1 26998U 01055B   17186.23466439  .00000061  00000-0  10768-4 0  9998
TLE2=2 26998  74.0727 279.2135 0002246 286.9873  73.1061 14.87907664844117
